[{"OBJECT_NAME":"STARLINK-36993","OBJECT_ID":"2026-039J","EPOCH":"2026-03-09T22:00:01.999584","MEAN_MOTION":15.8386555,"ECCENTRICITY":0.00018457,"INCLINATION":42.9985,"RA_OF_ASC_NODE":53.4636,"ARG_OF_PERICENTER":254.6533,"MEAN_ANOMALY":37.2496,"EPHEMERIS_TYPE":0,"CLASSIFICATION_TYPE":"U","NORAD_CAT_ID":67994,"ELEMENT_SET_NO":999,"REV_AT_EPOCH":291,"BSTAR":-0.0072267851,"MEAN_MOTION_DOT":-0.01471008,"MEAN_MOTION_DDOT":0},{"OBJECT_NAME":"FENGYUN 1C DEB","OBJECT_ID":"1999-025FY","EPOCH":"2026-03-09T23:04:12.406944","MEAN_MOTION":15.74540413,"ECCENTRICITY":0.00236267,"INCLINATION":96.9392,"RA_OF_ASC_NODE":240.6295,"ARG_OF_PERICENTER":293.9711,"MEAN_ANOMALY":65.9081,"EPHEMERIS_TYPE":0,"CLASSIFICATION_TYPE":"U","NORAD_CAT_ID":29878,"ELEMENT_SET_NO":999,"REV_AT_EPOCH":99980,"BSTAR":0.01323892,"MEAN_MOTION_DOT":0.02223467,"MEAN_MOTION_DDOT":0}]
